satname,norad_id,inclination_deg,eccentricity,mean_motion_rev_per_day,perigee_km,apogee_km,l1,l2
STARLINK-1365,45590,53.0551,0.0001248,15.06382238,546.4017061510294,548.1302867389422,1 45590U 20025BM  25349.37805069  .00001994  00000+0  15281-3 0  9995,2 45590  53.0551 125.1055 0001248  94.8883 265.2248 15.06382238312393
STARLINK-1443,45660,53.0551,0.0001274,15.06394055,546.3474868393741,548.1120702945527,1 45660U 20035D   25348.76616778  .00001071  00000+0  90763-4 0  9998,2 45660  53.0551  87.8563 0001274  73.8619 286.2510 15.06394055305939
STARLINK-1446,45663,53.0266,0.0002463,15.37951394,450.485761930493,453.85037020603795,1 45663U 20035G   25349.35992352  .00032568  00000+0  86641-3 0  9996,2 45663  53.0266  38.7079 0002463  16.3740 343.7341 15.37951394306672
STARLINK-1448,45665,53.0547,0.0001302,15.06387415,546.3484440149887,548.15181482349,1 45665U 20035J   25349.23428819 -.00000561  00000+0 -18749-4 0  9992,2 45665  53.0547  85.7512 0001302  91.5593 268.5546 15.06387415305990
STARLINK-1451,45668,53.0543,0.0001414,15.0640133,546.2282379731223,548.1867253925411,1 45668U 20035M   25349.30435319  .00000314  00000+0  39949-4 0  9995,2 45668  53.0543  85.7567 0001414  95.5972 264.5179 15.06401330306013
STARLINK-1452,45669,53.0388,0.0005163,15.3198309,466.3606090504518,473.4318881829731,1 45669U 20035N   25348.94227466  .00032487  00000+0  10444-2 0  9990,2 45669  53.0388  61.2143 0005163 152.1288 207.9989 15.31983090306325
STARLINK-1453,45670,53.055,0.0001379,15.25585693,488.08029109035397,489.9742549968596,1 45670U 20035P   25349.33335648  .00019791  00000+0  78038-3 0  9995,2 45670  53.0550  53.8695 0001379 101.5671  26.0421 15.25585693  5794
STARLINK-1454,45671,53.0547,0.0001368,15.06394635,546.2806110072479,548.1753908715054,1 45671U 20035Q   25349.26008282  .00000371  00000+0  43775-4 0  9994,2 45671  53.0547  85.6416 0001368  89.3431 270.7715 15.06394635305992
STARLINK-1456,45673,53.054,1.6e-06,15.14661088,521.9966194865528,522.0186999494645,1 45673U 20035S   25349.33335648  .00075072  00000+0  39861-2 0  9992,2 45673  53.0540  85.2106 0000016 211.6311 157.6256 15.14661088  5791
STARLINK-1457,45674,53.0515,0.0006183,15.48341369,417.3735174496878,425.7820447479944,1 45674U 20035T   25349.35625675  .00075049  00000+0  13899-2 0  9994,2 45674  53.0515  75.4187 0006183 340.5342  19.5428 15.48341369306134
STARLINK-1458,45675,53.0549,0.0001366,15.06390859,546.2935674884038,548.185580368402,1 45675U 20035U   25349.27115296  .00000087  00000+0  24723-4 0  9999,2 45675  53.0549  85.5873 0001366  82.9546 277.1598 15.06390859305970
STARLINK-1460,45676,53.0547,0.0001308,15.06404838,546.2908965528504,548.1025638566725,1 45676U 20035V   25349.30800036  .00001554  00000+0  12318-3 0  9993,2 45676  53.0547  85.4222 0001308  97.0269 263.0869 15.06404838305979
STARLINK-1392,45677,53.0539,0.0001076,15.06408036,546.4417640104157,547.9320937199072,1 45677U 20035W   25348.98732193  .00003624  00000+0  26198-3 0  9996,2 45677  53.0539  86.8645 0001076 102.4707 257.6402 15.06408036305960
STARLINK-1394,45679,53.0543,0.0002832,15.13321156,524.1248238318976,528.0353723962689,1 45679U 20035Y   25349.33335648  .00070093  00000+0  38681-2 0  9995,2 45679  53.0543  75.2432 0002832  69.5834  56.1743 15.13321156  5791
STARLINK-1402,45685,53.0526,0.0004073,15.31591287,468.2744025894808,473.8537617910333,1 45685U 20035AE  25349.37257248  .00006979  00000+0  23723-3 0  9999,2 45685  53.0526  60.7157 0004073 312.2553  47.8101 15.31591287306374
STARLINK-1404,45686,53.0553,0.0001325,15.06385381,546.3387488094513,548.1739780507614,1 45686U 20035AF  25349.27575777 -.00000477  00000+0 -13126-4 0  9995,2 45686  53.0553  75.5701 0001325 104.7040 255.4096 15.06385381306150
STARLINK-1413,45689,53.0549,0.0001355,15.0640758,546.249944845682,548.1267080091438,1 45689U 20035AJ  25348.96244919  .00005319  00000+0  37563-3 0  9992,2 45689  53.0549  76.9722 0001355 104.4463 255.6676 15.06407580306012
STARLINK-1417,45693,53.0537,0.0002203,15.07883339,541.1444112246654,544.1937183768168,1 45693U 20035AN  25349.21235104  .00014472  00000+0  94975-3 0  9992,2 45693  53.0537  75.7292 0002203 356.4520   3.6454 15.07883339306138
STARLINK-1420,45695,53.0555,0.0001301,15.06408428,546.2847429657204,548.0867119394034,1 45695U 20035AQ  25349.35775182  .00010638  00000+0  73184-3 0  9993,2 45695  53.0555  55.1895 0001301  96.1834 263.9303 15.06408428306444
STARLINK-1422,45696,53.0544,8.89e-05,15.06392194,546.619816693642,547.8511479209947,1 45696U 20035AR  25348.96983218  .00003132  00000+0  22912-3 0  9995,2 45696  53.0544  76.9431 0000889  89.3241 270.7850 15.06392194306092
STARLINK-1351,45697,53.0553,0.0001589,15.06404027,546.0987798660772,548.2996517154552,1 45697U 20035AS  25349.34394000  .00010054  00000+0  69284-3 0  9998,2 45697  53.0553  55.2636 0001589  88.8632 271.2539 15.06404027306444
STARLINK-1398,45699,53.0487,0.0002788,15.593539,387.639012280526,391.4126610782587,1 45699U 20035AU  25349.23724287  .00113107  00000+0  13948-2 0  9990,2 45699  53.0487 359.8268 0002788   8.6131 351.4928 15.59353900307212
STARLINK-1400,45700,53.0541,0.0001413,15.0641343,546.1918512931234,548.14894316358,1 45700U 20035AV  25348.92005701  .00003399  00000+0  24690-3 0  9999,2 45700  53.0541  57.1637 0001413  78.9530 281.1618 15.06413430306379
STARLINK-1403,45701,53.0545,0.0001464,15.06398056,546.2036441235523,548.2313879258436,1 45701U 20035AW  25349.34763434  .00002708  00000+0  20064-3 0  9995,2 45701  53.0545  55.2459 0001464 101.2977 258.8176 15.06398056306439
STARLINK-1407,45703,53.0412,0.0007529,15.45553388,424.6268761846077,434.8781962482408,1 45703U 20035AY  25349.35122686  .00014411  00000+0  30320-3 0  9996,2 45703  53.0412   1.9227 0007529 194.9570 165.1214 15.45553388307192
STARLINK-1411,45706,53.051,0.0001879,15.47722131,422.1133471157782,424.6693614713213,1 45706U 20035BB  25349.33335648  .00129489  00000+0  24285-2 0  9995,2 45706  53.0510  29.1693 0001879  58.4756 167.0405 15.47722131  5852
STARLINK-1423,45710,53.0546,0.0001457,15.06397601,546.2098861813511,548.2279348936818,1 45710U 20035BF  25348.90899840  .00001025  00000+0  87696-4 0  9993,2 45710  53.0546  57.2141 0001457  90.7023 269.4133 15.06397601306375
STARLINK-1433,45711,53.0553,0.0001295,15.06403703,546.3033776313168,548.0970399683947,1 45711U 20035BG  25349.35501256  .00012657  00000+0  86701-3 0  9993,2 45711  53.0553  55.2118 0001295  81.0564 279.0572 15.06403703306431
STARLINK-1434,45712,53.0524,0.0002055,15.18704097,508.3406386204233,511.17156268479175,1 45712U 20035BH  25349.33424832  .00021695  00000+0  10449-2 0  9993,2 45712  53.0524  48.1275 0002055 235.3181 124.7620 15.18704097306544
STARLINK-1465,45731,53.054,0.0001445,15.06385545,546.2551415172584,548.2565800540251,1 45731U 20038B   25349.12279609  .00000711  00000+0  66619-4 0  9992,2 45731  53.0540 256.2531 0001445  81.1871 278.9281 15.06385545303446
STARLINK-1471,45735,53.0492,0.0001654,15.4322157,435.4814954829508,437.73581334543087,1 45735U 20038F   25349.27275180  .00012600  00000+0  28815-3 0  9997,2 45735  53.0492 184.5650 0001654 100.3719 259.7473 15.43221570304470
STARLINK-1474,45738,53.0335,0.0001053,15.76534798,339.5598310149471,340.9747269561012,1 45738U 20038J   25349.11105828  .00090318  00000+0  55463-3 0  9995,2 45738  53.0335 133.0923 0001053  98.9074 261.2065 15.76534798305178
STARLINK-1480,45741,53.0549,0.0001703,15.10007611,534.9992615277324,537.3542767975077,1 45741U 20038M   25349.33335648  .00609532  00000+0  34869-1 0  9997,2 45741  53.0549 255.2416 0001703  78.8072 116.8710 15.10007611  5794
STARLINK-1500,45744,53.0371,0.0001798,15.30091272,474.3074397767923,476.77202192920595,1 45744U 20038Q   25348.95332306  .00016702  00000+0  57665-3 0  9997,2 45744  53.0371 228.7529 0001798  57.7466 302.3707 15.30091272303828
STARLINK-1504,45746,53.0257,0.0003626,15.45133882,428.51572725487586,433.45370232244113,1 45746U 20038S   25349.27726462  .00064918  00000+0  13463-2 0  9994,2 45746  53.0257 187.4061 0003626 104.6907 255.4501 15.45133882304426
STARLINK-1506,45747,53.0676,0.0002731,15.23299294,494.01977877885565,497.77437619197826,1 45747U 20038T   25349.10110009  .00016676  00000+0  70624-3 0  9992,2 45747  53.0676 232.7530 0002731  45.8992 314.2229 15.23299294303788
STARLINK-1464,45751,53.054,0.0001356,15.06390255,546.3023438063046,548.1805064351965,1 45751U 20038X   25349.17253965 -.00003253  00000+0 -19966-3 0  9994,2 45751  53.0540 236.0296 0001356  96.7377 263.3767 15.06390255303740
STARLINK-1477,45754,53.0516,0.0006744,15.09195983,533.9908203663899,543.3201900974473,1 45754U 20038AA  25349.07439993  .00017058  00000+0  10763-2 0  9994,2 45754  53.0516 235.9782 0006744 102.8552 257.3192 15.09195983303732
STARLINK-1478,45755,53.053,0.0001569,15.06392521,546.1478893057147,548.3210708761671,1 45755U 20038AB  25349.07302289 -.00000415  00000+0 -89878-5 0  9999,2 45755  53.0530 236.4739 0001569  92.7271 267.3898 15.06392521303718
STARLINK-1484,45756,53.0115,2.37e-05,15.70363555,357.69753177141956,358.0168178953063,1 45756U 20038AC  25349.07714532  .00069846  00000+0  56103-3 0  9992,2 45756  53.0115 123.0940 0000237 358.0668   2.0347 15.70363555305308
STARLINK-1493,45759,53.0535,0.0001503,15.06386728,546.2113490033889,548.2931210074321,1 45759U 20038AF  25348.99562511 -.00000496  00000+0 -14389-4 0  9992,2 45759  53.0535 236.8230 0001503  80.8388 279.2771 15.06386728303705
STARLINK-1494,45760,53.0521,0.0005214,15.55658324,396.7053920585022,403.7738832162304,1 45760U 20038AG  25349.31337950  .00025889  00000+0  37581-3 0  9997,2 45760  53.0521 205.5339 0005214 144.6574 215.4783 15.55658324304180
STARLINK-1502,45764,53.0535,0.0001522,15.0639343,546.1776529999643,548.2857352304527,1 45764U 20038AL  25348.96244606 -.00000073  00000+0  13983-4 0  9996,2 45764  53.0535 236.9738 0001522  97.1291 262.9871 15.06393430303719
